{"fetched_at":"2026-07-06T18:35:14.557Z","source":"https://celestrak.org/NORAD/elements/gp.php?GROUP=oneweb&FORMAT=JSON","constellation":"oneweb","records":[{"OBJECT_NAME":"ONEWEB-0564","OBJECT_ID":"2023-029F","EPOCH":"2026-07-05T18:31:02.830656","CLASSIFICATION_TYPE":"U","MEAN_MOTION":13.20772059,"ECCENTRICITY":0.00018741,"INCLINATION":87.9183,"RA_OF_ASC_NODE":270.7492,"ARG_OF_PERICENTER":88.9206,"MEAN_ANOMALY":271.2142,"EPHEMERIS_TYPE":0,"NORAD_CAT_ID":55801,"ELEMENT_SET_NO":999,"REV_AT_EPOCH":16360,"BSTAR":-0.000072601616,"MEAN_MOTION_DOT":-1.7e-7,"MEAN_MOTION_DDOT":0},{"OBJECT_NAME":"ONEWEB-0638","OBJECT_ID":"2023-029G","EPOCH":"2026-07-05T19:31:33.638592","CLASSIFICATION_TYPE":"U","MEAN_MOTION":13.14501058,"ECCENTRICITY":0.00016398,"INCLINATION":87.8966,"RA_OF_ASC_NODE":286.0385,"ARG_OF_PERICENTER":90.5377,"MEAN_ANOMALY":269.5941,"EPHEMERIS_TYPE":0,"NORAD_CAT_ID":55802,"ELEMENT_SET_NO":999,"REV_AT_EPOCH":16184,"BSTAR":0.0011163105,"MEAN_MOTION_DOT":0.00000427,"MEAN_MOTION_DDOT":0},{"OBJECT_NAME":"ONEWEB-0639","OBJECT_ID":"2023-029H","EPOCH":"2026-07-05T18:12:27.588096","CLASSIFICATION_TYPE":"U","MEAN_MOTION":13.19725891,"ECCENTRICITY":0.00022138,"INCLINATION":87.9185,"RA_OF_ASC_NODE":301.277,"ARG_OF_PERICENTER":126.5178,"MEAN_ANOMALY":233.6159,"EPHEMERIS_TYPE":0,"NORAD_CAT_ID":55803,"ELEMENT_SET_NO":999,"REV_AT_EPOCH":16135,"BSTAR":0.000034623121,"MEAN_MOTION_DOT":2.7e-7,"MEAN_MOTION_DDOT":0},{"OBJECT_NAME":"ONEWEB-0640","OBJECT_ID":"2023-029J","EPOCH":"2026-07-06T04:53:17.583936","CLASSIFICATION_TYPE":"U","MEAN_MOTION":13.1450244,"ECCENTRICITY":0.00013514,"INCLINATION":87.8963,"RA_OF_ASC_NODE":285.9518,"ARG_OF_PERICENTER":110.0216,"MEAN_ANOMALY":250.1059,"EPHEMERIS_TYPE":0,"NORAD_CAT_ID":55804,"ELEMENT_SET_NO":999,"REV_AT_EPOCH":16191,"BSTAR":0.00039567035,"MEAN_MOTION_DOT":0.00000159,"MEAN_MOTION_DDOT":0},{"OBJECT_NAME":"ONEWEB-0641","OBJECT_ID":"2023-029K","EPOCH":"2026-07-05T18:05:38.678496","CLASSIFICATION_TYPE":"U","MEAN_MOTION":13.19726146,"ECCENTRICITY":0.00020006,"INCLINATION":87.9191,"RA_OF_ASC_NODE":301.2686,"ARG_OF_PERICENTER":105.6438,"MEAN_ANOMALY":254.4915,"EPHEMERIS_TYPE":0,"NORAD_CAT_ID":55805,"ELEMENT_SET_NO":999,"REV_AT_EPOCH":16136,"BSTAR":0.000034630862,"MEAN_MOTION_DOT":2.7e-7,"MEAN_MOTION_DDOT":0},{"OBJECT_NAME":"ONEWEB-0642","OBJECT_ID":"2023-029L","EPOCH":"2026-07-05T19:48:00.905472","CLASSIFICATION_TYPE":"U","MEAN_MOTION":13.19725358,"ECCENTRICITY":0.00023955,"INCLINATION":87.9186,"RA_OF_ASC_NODE":301.2651,"ARG_OF_PERICENTER":120.534,"MEAN_ANOMALY":239.603,"EPHEMERIS_TYPE":0,"NORAD_CAT_ID":55806,"ELEMENT_SET_NO":999,"REV_AT_EPOCH":16136,"BSTAR":0.000076037232,"MEAN_MOTION_DOT":4.3e-7,"MEAN_MOTION_DDOT":0},{"OBJECT_NAME":"ONEWEB-0643","OBJECT_ID":"2023-029M","EPOCH":"2026-07-05T19:01:51.996288","CLASSIFICATION_TYPE":"U","MEAN_MOTION":13.14502026,"ECCENTRICITY":0.00024768,"INCLINATION":87.8962,"RA_OF_ASC_NODE":286.021,"ARG_OF_PERICENTER":113.3396,"MEAN_ANOMALY":246.7995,"EPHEMERIS_TYPE":0,"NORAD_CAT_ID":55807,"ELEMENT_SET_NO":999,"REV_AT_EPOCH":16183,"BSTAR":0.00037801014,"MEAN_MOTION_DOT":0.00000153,"MEAN_MOTION_DDOT":0},{"OBJECT_NAME":"ONEWEB-0644","OBJECT_ID":"2023-029N","EPOCH":"2026-07-05T19:41:11.411808","CLASSIFICATION_TYPE":"U","MEAN_MOTION":13.19725051,"ECCENTRICITY":0.0002142,"INCLINATION":87.9183,"RA_OF_ASC_NODE":301.267,"ARG_OF_PERICENTER":109.709,"MEAN_ANOMALY":250.4274,"EPHEMERIS_TYPE":0,"NORAD_CAT_ID":55808,"ELEMENT_SET_NO":999,"REV_AT_EPOCH":16136,"BSTAR":0.00018727602,"MEAN_MOTION_DOT":8.8e-7,"MEAN_MOTION_DDOT":0},{"OBJECT_NAME":"ONEWEB-0645","OBJECT_ID":"2023-029P","EPOCH":"2026-07-05T20:13:01.796160","CLASSIFICATION_TYPE":"U","MEAN_MOTION":13.19725273,"ECCENTRICITY":0.00017392,"INCLINATION":87.9183,"RA_OF_ASC_NODE":301.2595,"ARG_OF_PERICENTER":113.829,"MEAN_ANOMALY":246.3025,"EPHEMERIS_TYPE":0,"NORAD_CAT_ID":55809,"ELEMENT_SET_NO":999,"REV_AT_EPOCH":16136,"BSTAR":-0.000014740939,"MEAN_MOTION_DOT":7e-8,"MEAN_MOTION_DDOT":0},{"OBJECT_NAME":"ONEWEB-0646","OBJECT_ID":"2023-029Q","EPOCH":"2026-07-05T20:38:02.767200","CLASSIFICATION_TYPE":"U","MEAN_MOTION":13.19726035,"ECCENTRICITY":0.00021159,"INCLINATION":87.9184,"RA_OF_ASC_NODE":301.2563,"ARG_OF_PERICENTER":108.4282,"MEAN_ANOMALY":251.7081,"EPHEMERIS_TYPE":0,"NORAD_CAT_ID":55810,"ELEMENT_SET_NO":999,"REV_AT_EPOCH":16135,"BSTAR":0.00014747953,"MEAN_MOTION_DOT":7.2e-7,"MEAN_MOTION_DDOT":0},{"OBJECT_NAME":"ONEWEB-0648","OBJECT_ID":"2023-029R","EPOCH":"2026-07-05T23:45:01.267200","CLASSIFICATION_TYPE":"U","MEAN_MOTION":13.14502912,"ECCENTRICITY":0.00019919,"INCLINATION":87.8973,"RA_OF_ASC_NODE":285.9572,"ARG_OF_PERICENTER":127.1888,"MEAN_ANOMALY":232.9424,"EPHEMERIS_TYPE":0,"NORAD_CAT_ID":55811,"ELEMENT_SET_NO":999,"REV_AT_EPOCH":16186,"BSTAR":-0.00058428796,"MEAN_MOTION_DOT":-0.00000204,"MEAN_MOTION_DDOT":0},{"OBJECT_NAME":"ONEWEB-0649","OBJECT_ID":"2023-029S","EPOCH":"2026-07-05T19:25:15.122784","CLASSIFICATION_TYPE":"U","MEAN_MOTION":13.19726224,"ECCENTRICITY":0.00018872,"INCLINATION":87.9183,"RA_OF_ASC_NODE":301.2642,"ARG_OF_PERICENTER":108.7228,"MEAN_ANOMALY":251.411,"EPHEMERIS_TYPE":0,"NORAD_CAT_ID":55812,"ELEMENT_SET_NO":999,"REV_AT_EPOCH":16138,"BSTAR":0.0001360149,"MEAN_MOTION_DOT":6.7e-7,"MEAN_MOTION_DDOT":0},{"OBJECT_NAME":"ONEWEB-0650","OBJECT_ID":"2023-029T","EPOCH":"2026-07-05T21:07:36.331968","CLASSIFICATION_TYPE":"U","MEAN_MOTION":13.19725392,"ECCENTRICITY":0.00022311,"INCLINATION":87.9183,"RA_OF_ASC_NODE":301.2526,"ARG_OF_PERICENTER":116.5045,"MEAN_ANOMALY":243.6317,"EPHEMERIS_TYPE":0,"NORAD_CAT_ID":55813,"ELEMENT_SET_NO":999,"REV_AT_EPOCH":16136,"BSTAR":0.00010435571,"MEAN_MOTION_DOT":5.5e-7,"MEAN_MOTION_DDOT":0},{"OBJECT_NAME":"ONEWEB-0652","OBJECT_ID":"2023-029U","EPOCH":"2026-07-05T23:17:37.061376","CLASSIFICATION_TYPE":"U","MEAN_MOTION":13.14502023,"ECCENTRICITY":0.00020613,"INCLINATION":87.8973,"RA_OF_ASC_NODE":285.9678,"ARG_OF_PERICENTER":95.9511,"MEAN_ANOMALY":264.1854,"EPHEMERIS_TYPE":0,"NORAD_CAT_ID":55814,"ELEMENT_SET_NO":999,"REV_AT_EPOCH":16183,"BSTAR":0.00031240009,"MEAN_MOTION_DOT":0.00000129,"MEAN_MOTION_DDOT":0},{"OBJECT_NAME":"ONEWEB-0653","OBJECT_ID":"2023-029V","EPOCH":"2026-07-06T04:23:36.109248","CLASSIFICATION_TYPE":"U","MEAN_MOTION":13.14501705,"ECCENTRICITY":0.00019269,"INCLINATION":87.8969,"RA_OF_ASC_NODE":285.9235,"ARG_OF_PERICENTER":99.1434,"MEAN_ANOMALY":260.9913,"EPHEMERIS_TYPE":0,"NORAD_CAT_ID":55815,"ELEMENT_SET_NO":999,"REV_AT_EPOCH":16189,"BSTAR":0.00053670582,"MEAN_MOTION_DOT":0.00000212,"MEAN_MOTION_DDOT":0},{"OBJECT_NAME":"ONEWEB-0654","OBJECT_ID":"2023-029W","EPOCH":"2026-07-05T19:08:42.055872","CLASSIFICATION_TYPE":"U","MEAN_MOTION":13.14501949,"ECCENTRICITY":0.00019166,"INCLINATION":87.8971,"RA_OF_ASC_NODE":285.9964,"ARG_OF_PERICENTER":89.6028,"MEAN_ANOMALY":270.5322,"EPHEMERIS_TYPE":0,"NORAD_CAT_ID":55816,"ELEMENT_SET_NO":999,"REV_AT_EPOCH":16186,"BSTAR":0.0006195085,"MEAN_MOTION_DOT":0.00000242,"MEAN_MOTION_DDOT":0}]}
