[
  {
    "name": "ONEWEB-0564",
    "noradId": "55801",
    "line1": "1 55801U 23029F   26186.77156054 -.00000017  00000+0 -72602-4 0  9993",
    "line2": "2 55801  87.9183 270.7492 0001874  88.9206 271.2142 13.20772059163602"
  },
  {
    "name": "ONEWEB-0638",
    "noradId": "55802",
    "line1": "1 55802U 23029G   26186.81358378  .00000427  00000+0  11163-2 0  9998",
    "line2": "2 55802  87.8966 286.0385 0001639  90.5377 269.5941 13.14501058161842"
  },
  {
    "name": "ONEWEB-0639",
    "noradId": "55803",
    "line1": "1 55803U 23029H   26186.75865264  .00000027  00000+0  34623-4 0  9993",
    "line2": "2 55803  87.9185 301.2770 0002213 126.5178 233.6159 13.19725891161350"
  },
  {
    "name": "ONEWEB-0640",
    "noradId": "55804",
    "line1": "1 55804U 23029J   26187.20367574  .00000159  00000+0  39567-3 0  9993",
    "line2": "2 55804  87.8963 285.9518 0001351 110.0216 250.1059 13.14502440161918"
  },
  {
    "name": "ONEWEB-0641",
    "noradId": "55805",
    "line1": "1 55805U 23029K   26186.75391989  .00000027  00000+0  34631-4 0  9992",
    "line2": "2 55805  87.9191 301.2686 0002000 105.6438 254.4915 13.19726146161362"
  },
  {
    "name": "ONEWEB-0642",
    "noradId": "55806",
    "line1": "1 55806U 23029L   26186.82501048  .00000043  00000+0  76037-4 0  9994",
    "line2": "2 55806  87.9186 301.2651 0002395 120.5340 239.6030 13.19725358161361"
  },
  {
    "name": "ONEWEB-0643",
    "noradId": "55807",
    "line1": "1 55807U 23029M   26186.79296292  .00000153  00000+0  37801-3 0  9990",
    "line2": "2 55807  87.8962 286.0210 0002476 113.3396 246.7995 13.14502026161836"
  },
  {
    "name": "ONEWEB-0644",
    "noradId": "55808",
    "line1": "1 55808U 23029N   26186.82027097  .00000088  00000+0  18728-3 0  9994",
    "line2": "2 55808  87.9183 301.2670 0002142 109.7090 250.4274 13.19725051161363"
  },
  {
    "name": "ONEWEB-0645",
    "noradId": "55809",
    "line1": "1 55809U 23029P   26186.84238190  .00000007  00000+0 -14741-4 0  9999",
    "line2": "2 55809  87.9183 301.2595 0001739 113.8290 246.3025 13.19725273161363"
  },
  {
    "name": "ONEWEB-0646",
    "noradId": "55810",
    "line1": "1 55810U 23029Q   26186.85975425  .00000072  00000+0  14748-3 0  9998",
    "line2": "2 55810  87.9184 301.2563 0002115 108.4282 251.7081 13.19726035161359"
  },
  {
    "name": "ONEWEB-0648",
    "noradId": "55811",
    "line1": "1 55811U 23029R   26186.98959800 -.00000204  00000+0 -58429-3 0  9995",
    "line2": "2 55811  87.8973 285.9572 0001991 127.1888 232.9424 13.14502912161863"
  },
  {
    "name": "ONEWEB-0649",
    "noradId": "55812",
    "line1": "1 55812U 23029S   26186.80920281  .00000067  00000+0  13601-3 0  9996",
    "line2": "2 55812  87.9183 301.2642 0001887 108.7228 251.4110 13.19726224161389"
  },
  {
    "name": "ONEWEB-0650",
    "noradId": "55813",
    "line1": "1 55813U 23029T   26186.88028162  .00000055  00000+0  10436-3 0  9992",
    "line2": "2 55813  87.9183 301.2526 0002231 116.5045 243.6317 13.19725392161364"
  },
  {
    "name": "ONEWEB-0652",
    "noradId": "55814",
    "line1": "1 55814U 23029U   26186.97056784  .00000129  00000+0  31240-3 0  9992",
    "line2": "2 55814  87.8973 285.9678 0002061  95.9511 264.1854 13.14502023161831"
  },
  {
    "name": "ONEWEB-0653",
    "noradId": "55815",
    "line1": "1 55815U 23029V   26187.18305682  .00000212  00000+0  53671-3 0  9996",
    "line2": "2 55815  87.8969 285.9235 0001926  99.1434 260.9913 13.14501705161897"
  },
  {
    "name": "ONEWEB-0654",
    "noradId": "55816",
    "line1": "1 55816U 23029W   26186.79770898  .00000242  00000+0  61951-3 0  9991",
    "line2": "2 55816  87.8971 285.9964 0001916  89.6028 270.5322 13.14501949161860"
  }
]